{
  "norad_id": 63356,
  "name": "LEMUR-2-TILLINFINITY",
  "history": [
    {
      "epoch": "2026-03-28T20:54:21.957408Z",
      "apogee_km": 536.580881627403,
      "perigee_km": 510.66656456995406,
      "latitude_deg": 3.915625909678259e-05,
      "longitude_deg": -75.50101326860191,
      "height_km": 538.8381160345872,
      "semi_major_axis_km": 6901.760723098678,
      "eccentricity": 0.00187737,
      "inclination_deg": 97.5548,
      "raan_deg": 64.3758,
      "arg_perigee_deg": 159.623,
      "mean_anomaly_deg": 200.5755,
      "mean_motion_rev_day": 15.14129127
    },
    {
      "epoch": "2026-03-29T04:50:11.287392Z",
      "apogee_km": 536.5899706702467,
      "perigee_km": 510.62285126083043,
      "latitude_deg": 3.7326828706309673e-06,
      "longitude_deg": 165.54566115579667,
      "height_km": 538.7529508477393,
      "semi_major_axis_km": 6901.743410965539,
      "eccentricity": 0.0018812,
      "inclination_deg": 97.5549,
      "raan_deg": 64.7037,
      "arg_perigee_deg": 158.4905,
      "mean_anomaly_deg": 201.7121,
      "mean_motion_rev_day": 15.14134824
    },
    {
      "epoch": "2026-03-30T04:37:38.887680Z",
      "apogee_km": 536.6671986512447,
      "perigee_km": 510.4807269162493,
      "latitude_deg": 1.644834663959671e-05,
      "longitude_deg": 168.68729725221525,
      "height_km": 538.5092333416438,
      "semi_major_axis_km": 6901.710962783746,
      "eccentricity": 0.0018971,
      "inclination_deg": 97.555,
      "raan_deg": 65.6874,
      "arg_perigee_deg": 155.0455,
      "mean_anomaly_deg": 205.1698,
      "mean_motion_rev_day": 15.14145502
    },
    {
      "epoch": "2026-03-30T10:58:18.125472Z",
      "apogee_km": 536.6802713937732,
      "perigee_km": 510.4474585420985,
      "latitude_deg": -2.776313850756689e-05,
      "longitude_deg": 73.52566420971988,
      "height_km": 538.4313028404551,
      "semi_major_axis_km": 6901.700864967936,
      "eccentricity": 0.00190046,
      "inclination_deg": 97.5551,
      "raan_deg": 65.9498,
      "arg_perigee_deg": 154.1484,
      "mean_anomaly_deg": 206.0701,
      "mean_motion_rev_day": 15.14148825
    }
  ]
}